TDRS 3                  
1 19548U 88091B   24052.37609889 -.00000302  00000+0  00000+0 0  9990
2 19548  13.2522 346.7441 0041266 339.4695 270.7211  1.00263560116877
FLTSATCOM 8 (USA 46)    
1 20253U 89077A   24051.70876347 -.00000371  00000+0  00000+0 0  9997
2 20253  12.6703 356.2761 0006633 345.5286 189.1157  1.00280996252123
SKYNET 4C               
1 20776U 90079A   24049.98382684  .00000121  00000+0  00000+0 0  9996
2 20776  13.6131 355.6264 0003266 332.7711 207.7317  1.00278881122378
TDRS 5                  
1 21639U 91054B   24052.49564144  .00000028  00000+0  00000+0 0  9998
2 21639  14.1778 359.9705 0003228 312.4670 238.5623  1.00653652119218
TDRS 6                  
1 22314U 93003B   24052.29335844 -.00000299  00000+0  00000+0 0  9997
2 22314  14.1591   3.2684 0006976 153.1156  54.0734  1.00273130113889
UFO 2 (USA 95)          
1 22787U 93056A   24051.54620519  .00000119  00000+0  00000+0 0  9992
2 22787  11.6226   7.9660 0003442 337.6565  29.6491  1.00270936110058
USA 99 (MILSTAR-1 1)    
1 22988U 94009A   24051.47690074 -.00000205  00000+0  00000+0 0  9996
2 22988  16.3260  36.6807 0003386 284.0207 270.8427  1.00270663 24463
UFO 4 (USA 108)         
1 23467U 95003A   24052.42482817 -.00000029  00000+0  00000+0 0  9998
2 23467   9.7106  15.8256 0001049 307.3026 152.8415  1.00270983106451
AMSC 1                  
1 23553U 95019A   24051.52778229 -.00000101  00000+0  00000+0 0  9997
2 23553  12.5199  22.1479 0006466 302.4189 267.8771  1.00272729105678
TDRS 7                  
1 23613U 95035B   24052.34513049 -.00000206  00000+0  00000+0 0  9996
2 23613  13.7303 354.0528 0024990  59.8404 306.0814  1.00272091104666
USA 115 (MILSTAR-1 2)   
1 23712U 95060A   24052.51562032 -.00000024  00000+0  00000+0 0  9997
2 23712  13.7576   9.8588 0003945 302.7246 263.8991  1.00273028 23151
INMARSAT 3-F1           
1 23839U 96020A   24051.54942503  .00000127  00000+0  00000+0 0  9994
2 23839   8.8177  53.8069 0003670 267.7670  70.6349  0.99983031101777
INMARSAT 3-F2           
1 24307U 96053A   24051.52627701 -.00000249  00000+0  00000+0 0  9995
2 24307   7.9161  61.9906 0004769 297.1297 268.9085  0.99985306100442
INMARSAT 3-F3           
1 24674U 96070A   24051.79012965 -.00000053  00000+0  00000+0 0  9993
2 24674   8.4664  57.1768 0005137 261.5611 290.7417  1.00007373 99431
GALAXY 25 (G-25)        
1 24812U 97026A   24052.17453958 -.00000074  00000+0  00000+0 0  9996
2 24812   5.2405  77.3730 0009076 290.6605 122.2071  0.99091876 97822
INTELSAT 5 (IS-5)       
1 24916U 97046A   24051.78838920 -.00000073  00000+0  00000+0 0  9994
2 24916   8.5464  56.4356 0003870 230.1693 313.5655  1.00272470 97122
AMC-3 (GE-3)            
1 24936U 97050A   24052.18042927 -.00000271  00000+0  00000+0 0  9990
2 24936   6.0561  73.4051 0003192 265.7057 164.4211  1.00271696 96951
USA 134                 
1 25019U 97065A   24052.51971837 -.00000069  00000+0  00000+0 0  9992
2 25019  11.7707  27.6119 0004521 307.3449 250.9026  1.00270638 23118
INMARSAT 3-F5           
1 25153U 98006B   24052.47682272 -.00000299  00000+0  00000+0 0  9999
2 25153   7.7804  61.0774 0004971 270.4056 297.0541  1.00271243 95398
ASTRA 2A                
1 25462U 98050A   24052.12478914  .00000058  00000+0  00000+0 0  9991
2 25462   4.9495  78.8036 0003488 246.8720 286.9635  1.00271457 93240
SKYNET 4E               
1 25639U 99009B   24052.11321512 -.00000040  00000+0  00000+0 0  9994
2 25639  11.5679  13.6898 0003441 313.0228 223.3289  1.00271356 91523
ABS-6                   
1 25924U 99053A   24051.85861649 -.00000129  00000+0  00000+0 0  9998
2 25924   0.0680 280.1752 0002614  38.3344 299.8884  1.00270049 89335
UFO 10 (USA 146)        
1 25967U 99063A   24052.25210326 -.00000194  00000+0  00000+0 0  9993
2 25967   9.3811  31.1346 0004066 270.3418 277.1358  1.00270385 88849
GALAXY 11 (G-11)        
1 26038U 99071A   24051.93168589 -.00000066  00000+0  00000+0 0  9997
2 26038   4.5728  80.7610 0000540 310.3477 260.9053  1.00272933 88573
USA 148                 
1 26052U 00001A   24051.71964130  .00000030  00000+0  00000+0 0  9990
2 26052  10.5198  38.5276 0002727 272.7695 278.2733  1.00269142 24461
ASIASTAR                
1 26107U 00016A   24051.99103535 -.00000344  00000+0  00000+0 0  9990
2 26107   7.1287  66.6672 0004158 260.3538 285.1192  1.00275266 87654
USA 149 (DSP 20)        
1 26356U 00024A   24051.59332472  .00000088  00000+0  00000+0 0  9999
2 26356  12.5303  17.5602 0001932 270.7125 269.5082  1.00270416 23107
TDRS 8                  
1 26388U 00034A   24051.65045830  .00000088  00000+0  00000+0 0  9991
2 26388  11.3524  38.1598 0004634 262.1566 276.3008  1.00278318 86688
INTELSAT 9 (IS-9)       
1 26451U 00043A   24051.89102028 -.00000258  00000+0  00000+0 0  9991
2 26451   8.5321  56.6323 0004817 253.9720 122.4151  1.00383394 86351
NSS-11 (AAP-1)          
1 26554U 00059A   24051.86201037  .00000015  00000+0  00000+0 0  9999
2 26554   0.0564 292.0763 0002170  62.2079 282.2799  1.00271930 32797
USA 153                 
1 26575U 00065A   24051.85365619 -.00000335  00000+0  00000+0 0  9991
2 26575  10.1503  41.8162 0001937 258.6627 291.2722  1.00264750 23112
AMC-6 (GE-6)            
1 26580U 00067A   24052.49792782  .00000095  00000+0  00000+0 0  9997
2 26580   0.0560 291.8498 0002989  46.9776 212.3088  1.00270716 85496
INTELSAT 1R (IS-1R)     
1 26608U 00072A   24051.85826839 -.00000149  00000+0  00000+0 0  9995
2 26608   5.9516  73.9104 0001181 287.2091 255.2462  1.00272234 32826
ANIK F1                 
1 26624U 00076A   24052.22327505 -.00000072  00000+0  00000+0 0  9990
2 26624   3.0021  85.1762 0003975 272.6124 124.0011  1.00272098 85231
USA 157 (MILSTAR-2 2)   
1 26715U 01009A   24051.63427340  .00000006  00000+0  00000+0 0  9996
2 26715  10.6234  24.4366 0003321 298.5042 291.1872  1.00270670 23146
INTELSAT 10 (IS-10)     
1 26766U 01019A   24051.86000885 -.00000090  00000+0  00000+0 0  9993
2 26766   7.0424  67.7863 0003597 250.3949 308.0183  1.00164667 83431
INTELSAT 901 (IS-901)   
1 26824U 01024A   24051.96466747 -.00000211  00000+0  00000+0 0  9993
2 26824   0.0549 275.8439 0001037  58.6874 135.6157  1.00273280 83090
ASTRA 2C                
1 26853U 01025A   24052.38360477 -.00000269  00000+0  00000+0 0  9999
2 26853   6.0785  73.2294 0003077 251.4034 251.7734  1.00272368 83082
USA 159 (DSP 21)        
1 26880U 01033A   24051.81719372 -.00000304  00000+0  00000+0 0  9997
2 26880  11.9852  22.0271 0001294 295.4424  77.8230  1.00278126 24473
INTELSAT 902 (IS-902)   
1 26900U 01039A   24052.46147976 -.00000293  00000+0  00000+0 0  9990
2 26900   3.9618  82.0162 0002018 264.7532 280.1312  1.00272347 82288
USA 164 (MILSTAR-2 3)   
1 27168U 02001A   24052.11713115  .00000018  00000+0  00000+0 0  9997
2 27168  10.1800  26.3958 0100472 357.3162 187.8726  1.00270914 23154
INTELSAT 904 (IS-904)   
1 27380U 02007A   24051.89276073 -.00000225  00000+0  00000+0 0  9991
2 27380   4.7820  79.1863 0002587 261.9927 101.0140  1.00271519 43274
DIRECTV 5 (TEMPO 1)     
1 27426U 02023A   24051.87674858 -.00000066  00000+0  00000+0 0  9994
2 27426   2.6983  85.8911 0003574 249.3645  20.5220  1.00271950 79625
INTELSAT 905 (IS-905)   
1 27438U 02027A   24051.96536365 -.00000195  00000+0  00000+0 0  9994
2 27438   4.6074  79.8542 0002928 245.5319 148.0189  1.00272659 79472
GALAXY 3C (G-3C)        
1 27445U 02030A   24052.16803557 -.00000162  00000+0  00000+0 0  9993
2 27445   1.5447  88.4928 0000985 300.7908  86.9260  1.00271897 79454
INTELSAT 906 (IS-906)   
1 27513U 02041A   24052.48427970  .00000004  00000+0  00000+0 0  9991
2 27513   3.6358  83.2944 0004106 222.7847  83.2939  1.00272493 78487
TDRS 10                 
1 27566U 02055A   24051.72129472  .00000079  00000+0  00000+0 0  9998
2 27566   9.3410  46.2035 0006582 307.3329 245.2284  1.00266977 77732
NIMIQ 2                 
1 27632U 02062A   24052.52590933 -.00000076  00000+0  00000+0 0  9991
2 27632   7.4551  65.3058 0005398 264.1668 261.5574  1.00273680 77370
USA 167                 
1 27691U 03008A   24052.08754345  .00000044  00000+0  00000+0 0  9991
2 27691   9.2618  50.3846 0002211 252.5066 109.0693  1.00271458 23136
USA 169 (MILSTAR-2 4)   
1 27711U 03012A   24051.78551744 -.00000204  00000+0  00000+0 0  9992
2 27711  11.0509  36.1905 0099325 357.6500 191.2288  1.00270417 23147
ASIASAT 4               
1 27718U 03014A   24051.72516815 -.00000233  00000+0  00000+0 0  9997
2 27718   2.5241  86.4347 0003043 247.0383 225.2685  1.00270357 36802
HELLAS-SAT 2            
1 27811U 03020A   24051.89658972 -.00000093  00000+0  00000+0 0  9991
2 27811   5.2254  77.8356 0007245 237.0861 148.1250  1.00272792 34356
THURAYA-2               
1 27825U 03026A   24052.12191740  .00000119  00000+0  00000+0 0  9992
2 27825   7.5533  34.3602 0002980 286.4149 277.6399  1.00270658 75846
OPTUS C1                
1 27831U 03028B   24051.85792030 -.00000161  00000+0  00000+0 0  9997
2 27831   4.7479  79.5347 0006233 252.6849 282.5947  1.00271393 75824
GALAXY 23 (G-23)        
1 27854U 03034A   24051.63849034  .00000003  00000+0  00000+0 0  9996
2 27854   1.0001  90.7077 0002721 245.9709 282.3228  1.00271272 75245
USA 170                 
1 27875U 03040A   24052.18822865  .00000086  00000+0  00000+0 0  9991
2 27875   8.6854  55.3648 0002255 345.7719 193.3173  1.00273458 23139
GALAXY 13 (HORIZONS-1)  
1 27954U 03044A   24052.48951138  .00000123  00000+0  00000+0 0  9994
2 27954   0.0094 135.3951 0000073 274.3307 127.3797  1.00270680 74668
YAMAL 202               
1 28089U 03053A   24051.85948671 -.00000090  00000+0  00000+0 0  9996
2 28089   4.1886  81.1100 0003642 236.7335 305.3252  1.00272264 74185
UFO 11 (USA 174)        
1 28117U 03057A   24052.48645525 -.00000109  00000+0  00000+0 0  9995
2 28117   7.8845  37.0482 0002456 305.0245  59.2503  1.00272569 73931
